OBJECT_NAME,OBJECT_ID,EPOCH,MEAN_MOTION,ECCENTRICITY,INCLINATION,RA_OF_ASC_NODE,ARG_OF_PERICENTER,MEAN_ANOMALY,EPHEMERIS_TYPE,CLASSIFICATION_TYPE,NORAD_CAT_ID,ELEMENT_SET_NO,REV_AT_EPOCH,BSTAR,MEAN_MOTION_DOT,MEAN_MOTION_DDOT
PROBA-1,2001-049B,2026-06-17T12:50:18.015936,15.07495993,.0056454,97.9594,177.0795,120.6354,240.0456,0,U,26958,999,34367,.97885E-4,.1468E-4,0
CUTE-1 (CO-55),2003-031E,2026-06-17T05:57:00.313056,14.24335742,.0009542,98.6736,176.8060,177.7909,182.3314,0,U,27844,999,19168,.11738E-3,.228E-5,0
CUBESAT XI-IV (CO-57),2003-031J,2026-06-16T22:55:35.785056,14.23620738,.0009009,98.6766,176.2299,197.6805,162.4061,0,U,27848,999,19134,.10575E-3,.197E-5,0
APRIZESAT 4,2009-041D,2026-06-17T02:55:56.505792,14.83879249,.0042407,98.1413,243.4414,323.2689,36.5620,0,U,35684,999,91135,.72133E-4,.548E-5,0
APRIZESAT 3,2009-041F,2026-06-17T08:47:43.295712,14.96242028,.0062791,98.2062,321.5987,67.1799,293.6036,0,U,35686,999,91640,.13572E-3,.1525E-4,0
PROBA-2,2009-059B,2026-06-17T10:43:23.515680,14.54862537,.0011958,98.2449,351.7959,281.2389,78.7464,0,U,36037,999,88156,.41234E-4,.132E-5,0
APRIZESAT 5,2011-044E,2026-06-17T08:16:51.024864,14.81076302,.0052322,98.2452,101.3899,3.8419,356.3184,0,U,37792,999,79881,.12125E-3,.903E-5,0
APRIZESAT 6,2011-044F,2026-06-17T08:39:38.094912,14.76916063,.0044509,98.2364,78.8640,85.5033,33.1516,0,U,37793,999,79717,.93227E-4,.61E-5,0
PROBA-V,2013-021A,2026-06-17T11:17:38.062752,14.23596992,.0005153,98.3584,147.0632,122.7561,237.4115,0,U,39159,999,68115,.35391E-4,.4E-6,0
APRIZESAT 7,2013-066A,2026-06-17T08:31:30.605376,14.91564342,.0035015,97.7709,121.5727,208.7011,151.2281,0,U,39416,999,68125,.1066E-3,.1023E-4,0
APRIZESAT 8,2013-066K,2026-06-17T09:51:06.660000,14.87652987,.0044417,97.8221,115.8752,285.8061,73.8261,0,U,39425,999,67970,.89104E-4,.767E-5,0
BUGSAT-1 (TITA),2014-033E,2026-06-17T13:32:45.144960,15.15587943,.0028087,98.0434,261.1349,176.7976,183.3440,0,U,40014,999,65589,.1779E-3,.3333E-4,0
SAUDISAT 4,2014-033G,2026-06-17T09:20:42.099360,14.79544974,.0046153,97.7583,314.5169,73.3541,287.2731,0,U,40016,999,64610,.75815E-4,.526E-5,0
APRIZESAT 9,2014-033J,2026-06-17T08:14:25.713888,14.74214626,.0065702,97.9061,301.5381,198.6583,161.2217,0,U,40018,999,64358,.89218E-4,.557E-5,0
APRIZESAT 10,2014-033K,2026-06-17T07:56:15.338112,14.70882505,.007739,97.9650,295.2869,273.3797,85.8560,0,U,40019,999,64227,.61938E-4,.343E-5,0
TECHDEMOSAT-1 (TDS-1),2014-037H,2026-06-17T10:09:07.206048,15.13295674,.0004495,98.3812,160.6591,264.7364,95.3352,0,U,40076,999,64826,.33547E-3,.5896E-4,0
TECHNOSAT,2017-042E,2026-06-17T10:46:10.680672,15.04963189,.0018968,97.4288,326.0959,93.3985,266.9412,0,U,42829,999,48674,.22414E-3,.313E-4,0
FLYING LAPTOP,2017-042G,2026-06-17T12:27:05.458752,15.01148007,.0019628,97.4690,324.0383,120.6225,239.6938,0,U,42831,999,48650,.24168E-3,.3051E-4,0
HAWK-A,2018-099H,2026-06-17T03:37:45.212736,15.24642468,.0033102,97.3910,220.3877,286.0239,73.7353,0,U,43765,999,41309,.20357E-3,.5029E-4,0
HAWK-B,2018-099AN,2026-06-17T02:34:05.110176,15.22825315,.0030487,97.3960,219.7593,305.2659,54.5726,0,U,43794,999,41302,.20062E-3,.468E-4,0
HAWK-C,2018-099AT,2026-06-17T12:29:51.764928,15.28106536,.0038739,97.3887,221.6663,284.5539,75.1406,0,U,43799,999,41396,.208E-3,.5749E-4,0
SALSAT,2020-068K,2026-06-17T11:20:29.672160,15.29803093,.0008034,97.8846,171.5545,306.9379,53.1123,0,U,46495,999,31540,.2181E-3,.6216E-4,0
HAWK-2C,2021-006CT,2026-06-17T02:05:22.668288,15.34662649,.0006685,97.2274,212.3990,185.9398,174.1768,0,U,47502,999,29948,.15646E-3,.518E-4,0
HAWK-2A,2021-006CW,2026-06-17T03:42:51.632064,15.34677571,.0006104,97.2315,213.1431,188.7949,171.3189,0,U,47505,999,29949,.15202E-3,.5033E-4,0
HAWK-2B,2021-006CZ,2026-06-17T02:02:32.879328,15.34765305,.0006689,97.2187,211.4067,187.3239,172.7908,0,U,47508,999,29948,.17228E-3,.5731E-4,0
HAWK-3B,2021-059BE,2026-06-17T12:22:21.315072,15.69577683,.0003195,97.6650,5.2542,330.6002,29.5079,0,U,48931,999,27790,.31108E-3,.3666E-3,0
HAWK-3C,2021-059BX,2026-06-17T12:21:53.250624,15.69577806,.0003529,97.6772,10.9402,331.2503,28.8563,0,U,48948,999,27790,.29163E-3,.34353E-3,0
HAWK-3A,2021-059CG,2026-06-17T12:21:41.313600,15.69595385,.0003696,97.6717,8.1459,333.9883,26.1192,0,U,48957,999,27790,.30965E-3,.3652E-3,0
HAWK-5C,2022-057Y,2026-06-17T10:20:48.527808,15.51400159,.0004985,97.6601,328.1130,82.4478,277.7340,0,U,52754,999,22638,.26483E-3,.15508E-3,0
HAWK-5B,2022-057AA,2026-06-17T10:20:35.434752,15.51400967,.0005656,97.6610,326.4621,75.3473,284.8405,0,U,52756,999,22638,.25978E-3,.15212E-3,0
HAWK-5A,2022-057AB,2026-06-17T10:20:17.448864,15.51399329,.000557,97.6608,327.2934,78.1760,282.0115,0,U,52757,999,22638,.26288E-3,.15395E-3,0
